[{"OBJECT_NAME":"TRANSPORTER-12 OBJECT AZ","OBJECT_ID":"2025-009AZ","EPOCH":"2026-03-09T17:02:46.667040","MEAN_MOTION":15.30349724,"ECCENTRICITY":9.87e-5,"INCLINATION":97.3981,"RA_OF_ASC_NODE":151.9913,"ARG_OF_PERICENTER":45.3581,"MEAN_ANOMALY":314.774,"EPHEMERIS_TYPE":0,"CLASSIFICATION_TYPE":"U","NORAD_CAT_ID":62656,"ELEMENT_SET_NO":999,"REV_AT_EPOCH":6379,"BSTAR":0.00054902545,"MEAN_MOTION_DOT":0.00016057,"MEAN_MOTION_DDOT":0},{"OBJECT_NAME":"STARLINK-35126","OBJECT_ID":"2025-198M","EPOCH":"2026-03-09T22:01:42.553632","MEAN_MOTION":15.3019193,"ECCENTRICITY":0.00011011,"INCLINATION":53.1571,"RA_OF_ASC_NODE":270.0337,"ARG_OF_PERICENTER":94.083,"MEAN_ANOMALY":266.0296,"EPHEMERIS_TYPE":0,"CLASSIFICATION_TYPE":"U","NORAD_CAT_ID":65503,"ELEMENT_SET_NO":999,"REV_AT_EPOCH":2865,"BSTAR":0.0010687684,"MEAN_MOTION_DOT":0.00031421,"MEAN_MOTION_DDOT":0}]
